[{"OBJECT_NAME":"STARLINK-31609","OBJECT_ID":"2024-050R","EPOCH":"2026-03-09T14:33:04.402944","MEAN_MOTION":15.30187672,"ECCENTRICITY":0.0001047,"INCLINATION":53.1609,"RA_OF_ASC_NODE":181.5288,"ARG_OF_PERICENTER":78.8623,"MEAN_ANOMALY":281.2496,"EPHEMERIS_TYPE":0,"CLASSIFICATION_TYPE":"U","NORAD_CAT_ID":59269,"ELEMENT_SET_NO":999,"REV_AT_EPOCH":11053,"BSTAR":4.0853e-5,"MEAN_MOTION_DOT":8.51e-6,"MEAN_MOTION_DDOT":0},{"OBJECT_NAME":"COSMOS 2251 DEB","OBJECT_ID":"1993-036DE","EPOCH":"2026-03-09T20:53:28.838688","MEAN_MOTION":15.29467846,"ECCENTRICITY":0.00306247,"INCLINATION":73.7716,"RA_OF_ASC_NODE":223.0836,"ARG_OF_PERICENTER":342.1726,"MEAN_ANOMALY":17.8397,"EPHEMERIS_TYPE":0,"CLASSIFICATION_TYPE":"U","NORAD_CAT_ID":33901,"ELEMENT_SET_NO":999,"REV_AT_EPOCH":90839,"BSTAR":0.0037194515,"MEAN_MOTION_DOT":0.00109321,"MEAN_MOTION_DDOT":0}]
